name,city,address,lat,lon,video_url,embed_url
Chợ bách hóa Cà Mau,Ca Mau Province,"Đ. Số 6B, Phường 7, Cà Mau, Việt Nam",9.176544146,105.1471819,https://www.tiktok.com/@quankhonggo/video/7266662389343440135,https://www.tiktok.com/embed/7266662389343440135
Cơm Ba Sâm,Ca Mau Province,"Hai Tháng Chín, TT. Cái Nước, Cái Nước, Cà Mau, Việt Nam",8.940592339,105.0166467,https://www.tiktok.com/@truong_phi_thien/video/7288522492816248065,https://www.tiktok.com/embed/7288522492816248065
Tiệm sữa chua Bếp Nhà Bông,Ca Mau Province,"64 Ngô Quyền, Phường 2, Cà Mau, Việt Nam",9.180734102,105.1447785,https://www.tiktok.com/@berongcamau69/video/7524185380523101448,https://www.tiktok.com/embed/7524185380523101448
Tiệm Bánh Của Mẹ,Ca Mau Province,"78 Đường Phan Đình Phùng, Phường 2, Cà Mau, 94000, Việt Nam",9.181658041,105.1473886,https://www.tiktok.com/@berongcamau69/video/7421765602307788050,https://www.tiktok.com/embed/7421765602307788050
Bánh Tầm Cay A Xi Giá,Ca Mau Province,"17 Lý Bôn, Phường 4, Cà Mau, Việt Nam",9.183797927,105.1496158,https://www.tiktok.com/@quangocamau/photo/7537714972047068424,https://www.tiktok.com/embed/7537714972047068424
Đá Đậu Ông Dú,Ca Mau Province,"2 Lê Lợi, Phường 2, Cà Mau, Việt Nam",9.177452707,105.1461614,https://www.tiktok.com/@baduongvlog69.com/video/7363845207223192840,https://www.tiktok.com/embed/7363845207223192840
Quà Lưu Niệm Hoàng Vũ,Ca Mau Province,"18 Nguyễn Tất Thành, Lý Văn Lâm, Cà Mau, Việt Nam",9.1578549,105.1405886,https://www.tiktok.com/@heogiaushop/video/7524236456865434898,https://www.tiktok.com/embed/7524236456865434898
Chợ Nhà Phấn,Ca Mau Province,"QL1A Ấp Sở, Tại, xã, Cái Nước, Cà Mau 98615, Việt Nam",9.111218053,105.1003641,https://www.tiktok.com/@truong_phi_thien/video/7248407587819916549,https://www.tiktok.com/embed/7248407587819916549
Chợ phường 4,Ca Mau Province,"Pham Van Ky, Phường 5, Cà Mau, Việt Nam",9.181225162,105.1494243,https://www.tiktok.com/@muoidatmui.camau/video/7395538980034448658,https://www.tiktok.com/embed/7395538980034448658
Bún thịt xào nem nướng Băng Tâm,Bac Lieu Province,"516 Võ Thị Sáu, Phường 3, Bạc Liêu, Việt Nam",9.284301195,105.7214887,https://www.tiktok.com/@sayhihuy/video/7460477397159218440,https://www.tiktok.com/embed/7460477397159218440
Cà Ri Vịt Cầu Số 4,Bac Lieu Province,"114 Hòa Bình, Phường 7, Bạc Liêu, Việt Nam",9.288788121,105.7240178,https://www.tiktok.com/@thodianne/video/7398877688494099730,https://www.tiktok.com/embed/7398877688494099730
Vincom Plaza,Bac Lieu Province,"15 Trần Phú, Phường 3, Bạc Liêu, 990000, Việt Nam",9.286857304,105.7215873,https://www.tiktok.com/@anhnhutbs/video/7434170274507001096,https://www.tiktok.com/embed/7434170274507001096
Chợ Bạc Liêu,Bac Lieu Province,"Kios số 10-11, Cửa Nam chợ, 51 Hoàng Văn Thụ, Phường 3, Bạc Liêu, Việt Nam",9.285759209,105.725912,https://www.tiktok.com/@quankhonggo/video/7268136151544810757,https://www.tiktok.com/embed/7268136151544810757
Bùn Bò Cay Ánh Nguyệt,Bac Lieu Province,"119 Cao Văn Lầu, Phường 5, Bạc Liêu, Việt Nam",9.280571203,105.7272278,https://www.tiktok.com/@loanhquanhmientay/video/7443300237717916946,https://www.tiktok.com/embed/7443300237717916946
Bánh Xèo A Mật,Bac Lieu Province,"173/2 Ấp Giồng Nhãn, Hiệp Thành, Bạc Liêu, Việt Nam",9.235828926,105.7508104,https://www.tiktok.com/@mongo99/video/7482619357667921160,https://www.tiktok.com/embed/7482619357667921160
Chợ Rạch Giá,Kien Giang Province,"08 Lý Thái Tổ, Vĩnh Thanh, Rạch Giá, Kiên Giang, Việt Nam",10.01790166,105.0811078,https://www.tiktok.com/@quankhonggo/video/7561294668760091912,https://www.tiktok.com/embed/7561294668760091912
Chợ Bách Hóa Giồng Riềng,Kien Giang Province,"256 Đường Lê Lợi, Nội Ô, Giồng Riềng, Kiên Giang, Việt Nam",9.907978421,105.3135038,https://www.tiktok.com/@kiengiangcogihay/video/7494505876296879367,https://www.tiktok.com/embed/7494505876296879367
Chợ Sao Mai Tân hiệp,Kien Giang Province,"TT. Tân Hiệp, Tân Hịêp, Kiên Giang, Việt Nam",10.11761704,105.2899079,https://www.tiktok.com/@imphuong01/video/7429547213950422289,https://www.tiktok.com/embed/7429547213950422289
Chợ cá Hà Tiên,Kien Giang Province,"Đường Nguyễn Trung Trực, Pháo Đài, Hà Tiên, Kiên Giang, Việt Nam",10.37860317,104.4850442,https://www.tiktok.com/@muoi_kechuyen93/video/7523601796212739335,https://www.tiktok.com/embed/7523601796212739335
Quà lưu niệm Hòn Sơn,Kien Giang Province,"Tổ 8, Hòn Sơn, Kiên Giang 924120, Việt Nam",9.798613926,104.6311331,https://www.tiktok.com/@namdu.honson.booking/video/7441131354999246097,https://www.tiktok.com/embed/7441131354999246097
Bún cá 280,Kien Giang Province,"280 Nguyễn Trung Trực, Phường Vĩnh Bảo, Rạch Giá, Kiên Giang, Việt Nam",9.999939372,105.0902095,https://www.tiktok.com/@chau_muoi/video/7275274856927677698,https://www.tiktok.com/embed/7275274856927677698
Sữa Đậu Nhà Sách Đông Hồ,Kien Giang Province,"98b Trần Phú, Vĩnh Thanh, Rạch Giá, Kiên Giang, Việt Nam",10.01350917,105.0829971,https://www.tiktok.com/@truongngoctrang1405/video/7519361871468645639,https://www.tiktok.com/embed/7519361871468645639
Chợ Rạch Sỏi,Kien Giang Province,"10/6, Đường Mai Thị Hồng Hạnh, Rạch Sỏi, Rạch Giá, Kiên Giang, Việt Nam",9.954204895,105.1205054,https://www.tiktok.com/@longhoangphilosophy/video/7202480682591898907,https://www.tiktok.com/embed/7202480682591898907
Bánh canh ghẹ Phù Chí tài,Kien Giang Province,"Lô 13-C12 3 Tháng 2, P. An Hoà, Rạch Giá, Kiên Giang, Việt Nam",9.996882597,105.084674,https://www.tiktok.com/@anuongrachgia68/video/7291885893206478082,https://www.tiktok.com/embed/7291885893206478082
Chùa Som Rong,Soc Trang Province,"367 Tôn Đức Thắng, Phường 5, Tp. Sóc Trăng, Sóc Trăng, Việt Nam",9.622745699,105.9830582,https://www.tiktok.com/@quankhonggo/video/7263044118723464455,https://www.tiktok.com/embed/7263044118723464455
Chợ Sóc Trăng,Soc Trang Province,"Mạc Đĩnh Chi, Phường 9, Sóc Trăng, Việt Nam",9.604281569,105.9764145,https://www.tiktok.com/@quankhonggo/video/7264164129403931922,https://www.tiktok.com/embed/7264164129403931922
Bún Riêu Cô Tư Việt,Soc Trang Province,"Sóc Trăng, Việt Nam",9.607303666,105.9642858,https://www.tiktok.com/@thodianne/video/7329836747733339399,https://www.tiktok.com/embed/7329836747733339399
Hủ Tiếu Khải Đăng,Soc Trang Province,"224 Đường Lê Hồng Phong, Phường 3, Sóc Trăng, Việt Nam",9.591324884,105.9748002,https://www.tiktok.com/@dinhneha/video/7536082885380427015,https://www.tiktok.com/embed/7536082885380427015
Mì Anh Hào,Soc Trang Province,"443 ĐT1, Phước Lợi, Châu Thành, Sóc Trăng, Việt Nam",9.685395234,105.9596323,https://www.tiktok.com/@qadq.133/video/7491901440911363346,https://www.tiktok.com/embed/7491901440911363346
Chợ Mỹ Xuyên,Soc Trang Province,"29 Trưng Vương, TT. Mỹ Xuyên, Mỹ Xuyên, Sóc Trăng, Việt Nam",9.560281208,105.9899428,https://www.tiktok.com/@trieumythuykim/video/7534236211368463623,https://www.tiktok.com/embed/7534236211368463623
Chợ Bông Sen,Soc Trang Province,"166 Điện Biên Phủ, Phường 6, Sóc Trăng, Việt Nam",9.609673146,105.9711276,https://www.tiktok.com/@daydayreview/video/7562526407335660821,https://www.tiktok.com/embed/7562526407335660821
Lò bánh pía Mỹ Anh,Soc Trang Province,"74, ấp Thọ Hòa Đông A, xã Phú Tâm, Phú Tâm, Châu Thành, Sóc Trăng, Việt Nam",9.703914172,105.9643854,https://www.tiktok.com/@trieumythuykim/video/7547263397885119762,https://www.tiktok.com/embed/7547263397885119762
Chợ đêm Vị Thanh,Hau Giang Province,"70 Trưng Nhị, Phường 1, Vị Thanh, Hậu Giang 95100, Việt Nam",9.784314821,105.4681771,https://www.tiktok.com/@quankhonggo/video/7306051501020007682,https://www.tiktok.com/embed/7306051501020007682
Chợ Cái Tắc,Hau Giang Province,"Châu Thành A, Hậu Giang, Việt Nam",9.923928318,105.7236602,https://www.tiktok.com/@quioidithoi/video/7293389678764379400,https://www.tiktok.com/embed/7293389678764379400
Chợ Vị Thanh,Hau Giang Province,"Vị Thanh, Hậu Giang, Việt Nam",9.77672236,105.4600608,https://www.tiktok.com/@tungnuitravel/video/7423956540144536853,https://www.tiktok.com/embed/7423956540144536853
Bamboo Garden,Hau Giang Province,"Thạnh Hoà, Phụng Hiệp, Hậu Giang, Việt Nam",9.861267415,105.6887128,https://www.tiktok.com/@khaikhampha/video/7237076268708072710,https://www.tiktok.com/embed/7237076268708072710
Quán Cơm Ngoại Thành,Hau Giang Province,"Vị Trung, Vị Thuỷ, Hậu Giang, Việt Nam",9.784783059,105.5024059,https://www.tiktok.com/@nhaphuongoi15/video/7543063915219946760,https://www.tiktok.com/embed/7543063915219946760
Khu Du Lịch Mùa Xuân,Hau Giang Province,"236 Hoàng Hoa Thám, Tân Phước Hưng, Phụng Hiệp, Hậu Giang, Việt Nam",9.771951345,105.8383589,https://www.tiktok.com/@real_ct/video/7546220960366611733,https://www.tiktok.com/embed/7546220960366611733
Chợ Cần Thơ,Can Tho,"136 Đ. Hai Bà Trưng, Street, Ninh Kiều, Cần Thơ, Việt Nam",10.03139236,105.7881193,https://www.tiktok.com/@quankhonggo/video/7261561488203140370,https://www.tiktok.com/embed/7261561488203140370
Chợ Tân An,Can Tho,"71 Đ. Hai Bà Trưng, Tân An, Ninh Kiều, Cần Thơ, Việt Nam",10.02869928,105.7876112,https://www.tiktok.com/@thodianne/video/7296307969728220424,https://www.tiktok.com/embed/7296307969728220424
Chợ nổi Cái Răng,Can Tho,"An Bình, Ninh Kiều, Cần Thơ, Việt Nam",10.00504995,105.745982,https://www.tiktok.com/@quankhonggo/video/7261214887316049160,https://www.tiktok.com/embed/7261214887316049160
Chùa Ông,Can Tho,"32 Đ. Hai Bà Trưng, Tân An, Ninh Kiều, Cần Thơ, Việt Nam",10.03419339,105.788499,https://www.tiktok.com/@myymtoiroi/video/7537488093767585032,https://www.tiktok.com/embed/7537488093767585032
Chùa Khmer Muni- Raysan,Can Tho,"36 Đ. Hoà Bình, Tân An, Ninh Kiều, Cần Thơ, Việt Nam",10.03371642,105.7838753,https://www.tiktok.com/@pka.champay/video/7503063441175760135,https://www.tiktok.com/embed/7503063441175760135
Nhà cổ Bình Thủy,Can Tho,"144 Đ. Bùi Hữu Nghĩa, Bình Thuỷ, Bình Thủy, Cần Thơ, Việt Nam",10.06702817,105.7495858,https://www.tiktok.com/@ngvncuong/video/7526205373397634322,https://www.tiktok.com/embed/7526205373397634322
Chợ Tịnh Biên,An Giang Province,"Xuân Biên, Tịnh Biên, An Giang, Việt Nam",10.60598567,104.9446458,https://www.tiktok.com/@phuongoanh.daily/video/7486386096473935122,https://www.tiktok.com/embed/7486386096473935122
Chợ Châu Đốc,An Giang Province,"44 Phan Văn Vàng, Châu Phú A, An Phú, An Giang, Việt Nam",10.71081721,105.1184752,https://www.tiktok.com/@lenkycungkhoa/video/7217291814078926106,https://www.tiktok.com/embed/7217291814078926106
Rừng Tràm Trà Sư,An Giang Province,"Ấp Văn Trà, Văn Giáo, Tịnh Biên, An Giang 884000, Việt Nam",10.58515269,105.0579305,https://www.tiktok.com/@gowith_we/video/7421811356879310101,https://www.tiktok.com/embed/7421811356879310101
Chùa Tà Pạ,An Giang Province,"Núi Tô, Tri Tôn, An Giang, Việt Nam",10.41516487,104.9927356,https://www.tiktok.com/@utnhanmientay/video/7401465434693766401,https://www.tiktok.com/embed/7401465434693766401
Cổng Trời Tri Tôn,An Giang Province,"Châu Lăng, Tri Tôn, An Giang, Việt Nam",10.44802284,104.9702792,https://www.tiktok.com/@tungnuitravel/video/7510075318233877780,https://www.tiktok.com/embed/7510075318233877780
Miếu Bà Chúa Xứ,An Giang Province,"925 Phạm Văn Bạch Khóm, Vĩnh Tây 1, Châu Đốc, An Giang, Việt Nam",10.68214871,105.0802011,https://www.tiktok.com/@dolebachaudocminhnguyet/video/7493406578419191047,https://www.tiktok.com/embed/7493406578419191047
Hồ Otuksa,An Giang Province,"An Cư, Tịnh Biên, An Giang, Việt Nam",10.52497931,104.9965855,https://www.tiktok.com/@phnhuyne/video/7525428390883511559,https://www.tiktok.com/embed/7525428390883511559
Chùa Hang,An Giang Province,"P. Núi Sam, Châu Đốc, An Giang, Việt Nam",10.6768541,105.0730931,https://www.tiktok.com/@angiangbietgireviewnay/video/7497966861405965574,https://www.tiktok.com/embed/7497966861405965574
Cánh đồng thốt nốt,An Giang Province,"Vĩnh Trung, Tịnh Biên, An Giang, Việt Nam",10.54174274,105.0184848,https://www.tiktok.com/@chillcungyang/video/7573239707945979143,https://www.tiktok.com/embed/7573239707945979143
Chợ Trà Vinh,Tra Vinh Province,"124 Độc Lập, Phường 3, Trà Vinh, Việt Nam",9.935345829,106.342421,https://www.tiktok.com/@quankhonggo/video/7263686696611351815,https://www.tiktok.com/embed/7263686696611351815
Ao Bà Om,Tra Vinh Province,"68 Nguyễn Du, Lương Hoà, Châu Thành, Trà Vinh, Việt Nam",9.918105181,106.3041595,https://www.tiktok.com/@trogggveooo/video/7410446902912732437,https://www.tiktok.com/embed/7410446902912732437
Bảo Tàng Văn Hóa Dân Tộc Khmer,Tra Vinh Province,"Nguyễn Du, Phường 8, Trà Vinh, Việt Nam",9.916198627,106.3050162,https://www.tiktok.com/@diaphuongchi/video/7450166358849146119,https://www.tiktok.com/embed/7450166358849146119
Thiền Viện Trúc Lâm Trà Vinh,Tra Vinh Province,"ấp khoán tiều, Thị xã, Thị xã Duyên Hải, Trà Vinh, Việt Nam",9.645499046,106.5713755,https://www.tiktok.com/@haidang2428/video/7576127268938894613,https://www.tiktok.com/embed/7576127268938894613
Biển Ba Động,Tra Vinh Province,"Trường Long Hoà, Thị xã Duyên Hải, Trà Vinh, Việt Nam",9.633995,106.5650849,https://www.tiktok.com/@cart.coffee.ba.ng/video/7467716905126726930,https://www.tiktok.com/embed/7467716905126726930
Chùa Cò,Tra Vinh Province,"ĐT914, Đại An, Trà Cú, Trà Vinh, Việt Nam",9.644323493,106.3033287,https://www.tiktok.com/@thoailuca/video/7412482290686774529,https://www.tiktok.com/embed/7412482290686774529
Chùa Vàm Ray,Tra Vinh Province,"Ấp Vàm Ray, Trà Cú, Trà Vinh, Việt Nam",9.656126881,106.2751037,https://www.tiktok.com/@mandikhapvietnam/video/7532502899851545863,https://www.tiktok.com/embed/7532502899851545863
Chùa Sleng Cũ,Tra Vinh Province,"Ấp Bến Chùa -Xã Phước Hưng -Huyện -Tỉnh, 54, Phước Hưng, Trà Cú, Trà Vinh, Việt Nam",9.74615315,106.2817288,https://www.tiktok.com/@mandikhapvietnam/video/7529528122669124871,https://www.tiktok.com/embed/7529528122669124871
Chợ Vĩnh Long,Vinh Long Province,"Đoàn Thị Điểm, Phường 1, Vĩnh Long, Việt Nam",10.25673961,105.9723665,https://www.tiktok.com/@quankhonggo/video/7260360900937370887,https://www.tiktok.com/embed/7260360900937370887
Làng Gốm Mang Thít,Vinh Long Province,"Mỹ Phước, Mang Thít, Vĩnh Long, Việt Nam",10.22711844,106.0690592,https://www.tiktok.com/@gowith_we/video/7425610423350693138,https://www.tiktok.com/embed/7425610423350693138
Chùa Phật Ngọc Xá Lợi,Vinh Long Province,"QL1A, Tân Ngãi, Vĩnh Long, Việt Nam",10.26482204,105.9154848,https://www.tiktok.com/@diicungtri/video/7524236021412760840,https://www.tiktok.com/embed/7524236021412760840
Làng Gốm Tư Buôi,Vinh Long Province,"Khu Minh Linh, Phường 5, Vĩnh Long, 890900, Việt Nam",10.25624767,105.9932509,https://www.tiktok.com/@diicungtri/video/7463853515144842504,https://www.tiktok.com/embed/7463853515144842504
Văn Thánh Miếu,Vinh Long Province,"Trần Phú, Phường 4, Vĩnh Long, Việt Nam",10.24277099,105.984611,https://www.tiktok.com/@thanhhoang.lee/video/7471506300594113800,https://www.tiktok.com/embed/7471506300594113800
Vĩnh An Cung,Vinh Long Province,"22 Nguyễn Chí Thanh, Phường 5, Vĩnh Long, Việt Nam",10.25474454,105.9780206,https://www.tiktok.com/@diaphuongchi/video/7472877569528892692,https://www.tiktok.com/embed/7472877569528892692
Chợ quê Tân Thuận Đông,Dong Thap Province,"Tân Thuận Đông, Cao Lãnh, Đồng Tháp, Việt Nam",10.41520284,105.6268249,https://www.tiktok.com/@quankhonggo/video/7262683525437050130,https://www.tiktok.com/embed/7262683525437050130
Chợ Tháp Mười,Dong Thap Province,"45 Trần Phú, TT. Mỹ An, Tháp Mười, Đồng Tháp, Việt Nam",10.51966292,105.8442907,https://www.tiktok.com/@myymtoiroi/video/7542669564585266440,https://www.tiktok.com/embed/7542669564585266440
Khu Di Tích Xẻo Quít,Dong Thap Province,"Mỹ Long, Cao Lãnh, Đồng Tháp, Việt Nam",10.39461576,105.8046252,https://www.tiktok.com/@gowith_we/video/7424010876098710804,https://www.tiktok.com/embed/7424010876098710804
Khu Di Tích Cụ Nguyễn Sinh Sắc,Dong Thap Province,"137 Phạm Hữu Lầu, Phường 4, Cao Lãnh, Đồng Tháp, Việt Nam",10.44790761,105.6320886,https://www.tiktok.com/@tranngoc1908/video/7451224529348726034,https://www.tiktok.com/embed/7451224529348726034
Bảo Tàng Đồng Tháp - Cơ Sở 2,Dong Thap Province,"226 Nguyễn Thái Học, Phường 1, Cao Lãnh, Đồng Tháp, Việt Nam",10.45322514,105.6325082,https://www.tiktok.com/@filmbythuyduong/video/7581844068121038098,https://www.tiktok.com/embed/7581844068121038098
Khu Du Lịch Mỹ Phước Thành,Dong Thap Province,"266 Tôn Đức Thắng, Phường Mỹ Phú, Cao Lãnh, Đồng Tháp, Việt Nam",10.47123292,105.6481297,https://www.tiktok.com/@chillcungyang/video/7552012738978139400,https://www.tiktok.com/embed/7552012738978139400
Chợ Bến Tre,Ben Tre Province,"30 Hùng Vương, Phường 1, Bến Tre, 930000, Việt Nam",10.23500684,106.376321,https://www.tiktok.com/@quankhonggo/video/7260825907575770375,https://www.tiktok.com/embed/7260825907575770375
Chợ đêm Bến Tre,Ben Tre Province,"136 Đại Lộ Đồng Khởi, Phường 2, Bến Tre, Việt Nam",10.23454838,106.3764979,https://www.tiktok.com/@longchun9494/video/7323083698834853127,https://www.tiktok.com/embed/7323083698834853127
Đình An Hội,Ben Tre Province,"Nguyễn Đình Chiểu, Phường 2, Bến Tre, Việt Nam",10.23649595,106.3770146,https://www.tiktok.com/@co3xuduabentre/video/7569212466488462610,https://www.tiktok.com/embed/7569212466488462610
Khu Du Lịch Lan Vương,Ben Tre Province,"ĐT887, Phú Nhuận, Bến Tre, Việt Nam",10.20859289,106.3706978,https://www.tiktok.com/@saigonvivu.vn/video/7235821312395054341,https://www.tiktok.com/embed/7235821312395054341
Khu Du Lịch Hạ Thảo,Ben Tre Province,"Nhơn Thạnh, Bến Tre, Việt Nam",10.21091149,106.4076711,https://www.tiktok.com/@angidaytroi/video/7509344802069122311,https://www.tiktok.com/embed/7509344802069122311
Chùa Vạn Phước,Ben Tre Province,"QL57B, Ấp Bình Chiến, Bình Đại, Bến Tre, Việt Nam",10.16392008,106.7065974,https://www.tiktok.com/@hoanghuy_flycam/video/7535390581225311495,https://www.tiktok.com/embed/7535390581225311495
Biển Cồn Nhàn,Ben Tre Province,"Bảo Thuận, Ba Tri, Bến Tre, Việt Nam",10.01668523,106.6883973,https://www.tiktok.com/@anhkhoa16122004/video/7560352970622143762,https://www.tiktok.com/embed/7560352970622143762
Bảo Tàng Bến Tre,Ben Tre Province,"Hùng Vương, Phường 3, Bến Tre, Việt Nam",10.23495366,106.3741582,https://www.tiktok.com/@diaphuongchi/video/7444532133667949831,https://www.tiktok.com/embed/7444532133667949831
Đầm Sinh Thái Gió Đước,Ben Tre Province,"Đường điện gió số 5, ấp Thạnh Thới B, Thạnh Phú, Bến Tre, Việt Nam",9.913906079,106.6598003,https://www.tiktok.com/@miinh.tam/video/7517627036282785042,https://www.tiktok.com/embed/7517627036282785042
Khu Du Lịch Cồn Phụng,Ben Tre Province,"Cồn Phụng, Tân Thạch, Châu Thành, Bến Tre 39000, Việt Nam",10.33673646,106.3687337,https://www.tiktok.com/@angiomytho/video/7464183713161678098,https://www.tiktok.com/embed/7464183713161678098
Khu Di Tích Đạo Dừa,Ben Tre Province,"ấp Tân Vinh, Châu Thành, Bến Tre, Việt Nam",10.33611162,106.3692827,https://www.tiktok.com/@namkyduky/video/7323082340710780168,https://www.tiktok.com/embed/7323082340710780168
Chợ Mỹ Tho,Tien Giang Province,"Nguyễn Huệ, Phường 1, Mỹ Tho, Tiền Giang, Việt Nam",10.35726246,106.367734,https://www.tiktok.com/@myymtoiroi/video/7540670093030591765,https://www.tiktok.com/embed/7540670093030591765
Chùa Vĩnh Tràng,Tien Giang Province,"ấp Mỹ An, Mỹ Phong, Mỹ Tho, Tiền Giang, Việt Nam",10.36264292,106.3736088,https://www.tiktok.com/@quasar.pulsar0/video/7541712922947505426,https://www.tiktok.com/embed/7541712922947505426
Bửu Lâm Cổ Tự,Tien Giang Province,"162B Nguyễn Văn Giác, Phường 2, Mỹ Tho, Tiền Giang, Việt Nam",10.36133631,106.3714501,https://www.tiktok.com/@diaphuongchi/video/7441176916066848008,https://www.tiktok.com/embed/7441176916066848008
Nhà Bạch Công Tử,Tien Giang Province,"62 Đinh Bộ Lĩnh, Phường 2, Mỹ Tho, Tiền Giang, Việt Nam",10.35544454,106.3717551,https://www.tiktok.com/@nguyenhoangchuong999/video/7336409672850656513,https://www.tiktok.com/embed/7336409672850656513
Cù Lao Thới Sơn,Tien Giang Province,"Thới Sơn, Thành phố Mỹ Tho, Tiền Giang, Việt Nam",10.34126954,106.3543494,https://www.tiktok.com/@phgahn/video/7541676890361302280,https://www.tiktok.com/embed/7541676890361302280
Thiền Viện Trúc Lâm Chánh Giác,Tien Giang Province,"Ấp 1, Tân Phước, Tiền Giang, Việt Nam",10.54359503,106.1659879,https://www.tiktok.com/@bongngomario/video/7432134146618559751,https://www.tiktok.com/embed/7432134146618559751
Chợ Tân An,Long An Province,"Phường 1, Tân An, Long An, Việt Nam",10.53882832,106.4131648,https://www.tiktok.com/@ansaplongan/video/7547693952963448065,https://www.tiktok.com/embed/7547693952963448065
Làng Nổi Tân Lập,Long An Province,"QL62, Tân Lập, Mộc Hóa, Long An 850000, Việt Nam",10.71488412,105.9873872,https://www.tiktok.com/@gowith_we/video/7426738220181818625,https://www.tiktok.com/embed/7426738220181818625
Chùa Tôn Thạnh,Long An Province,"Ấp Thanh Ba, Cần Giuộc, Long An, Việt Nam",10.60532973,106.6463713,https://www.tiktok.com/@itsvuxth/video/7549535997357329682,https://www.tiktok.com/embed/7549535997357329682
Khu Du Lịch Cánh Đồng Bất Tận,Long An Province,"KP3, Bình Phong Thạnh, Mộc Hóa, Long An, Việt Nam",10.72512056,106.0848785,https://www.tiktok.com/@gowith_we/video/7426981840621161744,https://www.tiktok.com/embed/7426981840621161744
Chùa Thiên Mụ,Long An Province,"Tân Trạch, Cần Đước, Long An, Việt Nam",10.57255283,106.5743213,https://www.tiktok.com/@ongpepp/video/7507296441417633042,https://www.tiktok.com/embed/7507296441417633042
Bánh Tráng Trộn Phượng (Cầu Đúc),Long An Province,"71b Hai Bà Trưng, Phường 1, Tân An, Long An, Việt Nam",10.53586891,106.4126266,https://www.tiktok.com/@banhtrangphuongcauduc/video/7242228014988250374,https://www.tiktok.com/embed/7242228014988250374
Chợ Bến Thành,Ho Chi Minh City,"Phường Bến Thành, Quận 1, Thành phố Hồ Chí Minh, Việt Nam",10.77253062,106.6980191,https://www.tiktok.com/@quankhonggo/video/7248229117018033413,https://www.tiktok.com/embed/7248229117018033413
Chợ Bà Chiểu,Ho Chi Minh City,"Phường 1, Bình Thạnh, Thành phố Hồ Chí Minh, Việt Nam",10.80161938,106.6988136,https://www.tiktok.com/@quankhonggo/video/7247839715322350854,https://www.tiktok.com/embed/7247839715322350854
Chợ Bàn  Cờ,Ho Chi Minh City,"Phường 3, Quận 3, Thành phố Hồ Chí Minh, Việt Nam",10.76916273,106.6810456,https://www.tiktok.com/@quankhonggo/video/7480156154253823240,https://www.tiktok.com/embed/7480156154253823240
Chợ Tân Định,Ho Chi Minh City,"336 Hai Bà Trưng, Phường Tân Định, Quận 1, Thành phố Hồ Chí Minh, Việt Nam",10.78969241,106.6898666,https://www.tiktok.com/@quankhonggo/video/7251547897290935558,https://www.tiktok.com/embed/7251547897290935558
Chợ Bình Tây,Ho Chi Minh City,"57A Tháp Mười, Phường 2, Quận 6, Thành phố Hồ Chí Minh 700900, Việt Nam",10.74937958,106.6510556,https://www.tiktok.com/@didauofficial/video/7351701644716838164,https://www.tiktok.com/embed/7351701644716838164
Bánh Mì Huynh Hoa,Ho Chi Minh City,"26 Lê Thị Riêng, Phường Phạm Ngũ Lão, Quận 1, Thành phố Hồ Chí Minh, Việt Nam",10.77153667,106.692395,https://www.tiktok.com/@banhmi.huynhhoa/video/7420376360469744897,https://www.tiktok.com/embed/7420376360469744897
Cơm Tấm Sà Bì Chưởng,Ho Chi Minh City,"179 Đường Trần Bình Trọng, Phường 2, Quận 5, Thành phố Hồ Chí Minh 700000, Việt Nam",10.75856643,106.6804489,https://www.tiktok.com/@quankhonggo/video/7244788131449392389,https://www.tiktok.com/embed/7244788131449392389
Trà Sữa Băng Thành,Ho Chi Minh City,"352 Nguyễn Duy Dương, Phường 9, Quận 10, Thành phố Hồ Chí Minh, Việt Nam",10.76498705,106.6701635,https://www.tiktok.com/@cholondowntown/video/7248460605164768517,https://www.tiktok.com/embed/7248460605164768517
Chè mâm Khánh Vy,Ho Chi Minh City,"032 lô H, Phường 2, Quận 10, Thành phố Hồ Chí Minh, Việt Nam",10.76169332,106.6730945,https://www.tiktok.com/@anchoi.khapchon/video/7556507107877555463,https://www.tiktok.com/embed/7556507107877555463
Bún Thịt Nướng Anh Thành,Ho Chi Minh City,"67 Võ Văn Kiệt, Phường Cầu Ông Lãnh, Quận 1, Thành phố Hồ Chí Minh, Việt Nam",10.7647368,106.6986731,https://www.tiktok.com/@lenkycungkhoa/video/7522805473054182677,https://www.tiktok.com/embed/7522805473054182677
Himitsu no Kichi,Ho Chi Minh City,"446A Đ. 3 Tháng 2, Phường 12, Quận 10, Thành phố Hồ Chí Minh 70000, Việt Nam",10.7688246,106.6685039,https://www.tiktok.com/@i.ou.y.choi/video/7563982135346924820,https://www.tiktok.com/embed/7563982135346924820
Peachiful Vintage Room,Ho Chi Minh City,"330 Đ. Lê Văn Sỹ, Phường 14, Quận 3, Thành phố Hồ Chí Minh, Việt Nam",10.7873643,106.6790963,https://www.tiktok.com/@bantinbungdoi/video/7512797913555275016,https://www.tiktok.com/embed/7512797913555275016
Tiệm Gốm Ô Mê Ly,Ho Chi Minh City,"15\27- 15\28 Nguyễn Thị Minh Khai, Bến Nghé, Quận 1, Thành phố Hồ Chí Minh, Việt Nam",10.78505876,106.7009429,https://www.tiktok.com/@bolonton_/video/7452299796036996360,https://www.tiktok.com/embed/7452299796036996360
Vesta Lifestyle & Gifts,Ho Chi Minh City,"67 Nguyễn Trãi, Phường Bến Thành, Quận 1, Thành phố Hồ Chí Minh, Việt Nam",10.77011581,106.6918735,https://www.tiktok.com/@wanderflywithan/video/7560874340863003922,https://www.tiktok.com/embed/7560874340863003922
Tiệm Của Gỗ Ghibli,Ho Chi Minh City,"Hẻm 29 Nguyễn Bỉnh Khiêm, Đa Kao, Quận 1, Thành phố Hồ Chí Minh, Việt Nam",10.78884792,106.7025853,https://www.tiktok.com/@trongditron/video/7366491718004329736,https://www.tiktok.com/embed/7366491718004329736
Bảo Tàng Lịch Sử Thành Phố Hồ Chí Minh,Ho Chi Minh City,"2 Nguyễn Bỉnh Khiêm, Bến Nghé, Quận 1, Thành phố Hồ Chí Minh, Việt Nam",10.78808986,106.704727,https://www.tiktok.com/@diaphuongchi/video/7477001364757875975,https://www.tiktok.com/embed/7477001364757875975
Bảo Tàng Mỹ Thuật Thành Phố Hồ Chí Minh,Ho Chi Minh City,"97A Phó Đức Chính, Phường Nguyễn Thái Bình, Quận 1, Thành phố Hồ Chí Minh, Việt Nam",10.77007719,106.6992652,https://www.tiktok.com/@soholadi2603/video/7535375239216106760,https://www.tiktok.com/embed/7535375239216106760
Bảo Tàng Tôn Đức Thắng,Ho Chi Minh City,"5 Tôn Đức Thắng, Phường Sài Gòn, Quận 1, Thành phố Hồ Chí Minh, Việt Nam",10.77699957,106.7067557,https://www.tiktok.com/@hocreview45/video/7522827562398043399,https://www.tiktok.com/embed/7522827562398043399
Nhà Hát Thành Phố Hồ Chí Minh,Ho Chi Minh City,"07 Công trường Lam Sơn, Bến Nghé, Quận 1, Thành phố Hồ Chí Minh 710212, Việt Nam",10.7766236,106.7031697,https://www.tiktok.com/@nhahatthanhpho/video/7402461360182889735,https://www.tiktok.com/embed/7402461360182889735
Dinh Độc Lập,Ho Chi Minh City,"Phường Bến Thành, Quận 1, Thành phố Hồ Chí Minh, Việt Nam",10.77700955,106.695301,https://www.tiktok.com/@minhlagrin/video/7362752770572619026,https://www.tiktok.com/embed/7362752770572619026
Thảo Cầm Viên,Ho Chi Minh City,"2 Nguyễn Bỉnh Khiêm, Phường Sài Gòn, Quận 1, Thành phố Hồ Chí Minh 700000, Việt Nam",10.78734626,106.705055,https://www.tiktok.com/@mutchut/video/7368322194016865544,https://www.tiktok.com/embed/7368322194016865544
Chợ Long Hoa,Tay Ninh Province,"Huỳnh Thanh Mừng, TT. Hoà Thành, Hoà Thành, Tây Ninh, Việt Nam",11.28304013,106.1297908,https://www.tiktok.com/@quankhonggo/video/7265657467323813127,https://www.tiktok.com/embed/7265657467323813127
Hồ Núi Đá - Ma Thiên Lãnh,Tay Ninh Province,"Ma Thiên Lãnh, Ninh Sơn, Tây Ninh, Việt Nam",11.3940541,106.1470566,https://www.tiktok.com/@ngc.khoi.nng/video/7516008386446544135,https://www.tiktok.com/embed/7516008386446544135
Núi Bà Đen,Tay Ninh Province,"Thạnh Tân, Tây Ninh, Việt Nam",11.38170647,106.1757371,https://www.tiktok.com/@tayninhdaily/video/7536197233042132232,https://www.tiktok.com/embed/7536197233042132232
Tòa Thánh Tây Ninh,Tay Ninh Province,"Phạm Hộ Pháp, TT. Hoà Thành, Hoà Thành, Tây Ninh 80606, Việt Nam",11.30379027,106.1329844,https://www.tiktok.com/@caubalaca/video/7541797551612169480,https://www.tiktok.com/embed/7541797551612169480
Chùa Thiền Lâm (Gò Kén),Tay Ninh Province,"Long Thành Trung, Hoà Thành, Tây Ninh, Việt Nam",11.27423637,106.1063917,https://www.tiktok.com/@yuu.yenn/video/7343595188482280722,https://www.tiktok.com/embed/7343595188482280722
Khu Di Tích Căn Cứ Trung Ương Cục Miền Nam,Tay Ninh Province,"Tân Lập, Tân Biên, Tây Ninh, Việt Nam",11.73386659,106.0766868,https://www.tiktok.com/@duyen5522/video/7517536645374053639,https://www.tiktok.com/embed/7517536645374053639
Chợ Thủ Dầu Một,Binh Duong Province,"Đ. Điểu Ong, Phú Cường, Thủ Dầu Một, Bình Dương, Việt Nam",10.97789145,106.65182,https://www.tiktok.com/@huynhhongocduc/video/7277980244471024914,https://www.tiktok.com/embed/7277980244471024914
Bảo Tàng Dược Cổ Truyền,Binh Duong Province,"26 bis/1, Vĩnh Phú, Thuận An, Bình Dương, Việt Nam",10.87510917,106.7010237,https://www.tiktok.com/@anchoibinhduongne/video/7483107208742391047,https://www.tiktok.com/embed/7483107208742391047
Vu Garden,Binh Duong Province,"117 Đ. Nguyễn Du, An Phú, Thuận An, Bình Dương, Việt Nam",10.93005155,106.7362269,https://www.tiktok.com/@nicbongcutewww/video/7545381430860205320,https://www.tiktok.com/embed/7545381430860205320
Chùa Hội Khánh,Binh Duong Province,"35 Yersin, Phú Cường, Thủ Dầu Một, Bình Dương, Việt Nam",10.98106104,106.658843,https://www.tiktok.com/@diaphuongchi/video/7574454414925237520,https://www.tiktok.com/embed/7574454414925237520
Suối Rạc,Binh Duong Province," An Bình, Phú Giáo, Bình Dương, Việt Nam",11.30902197,106.8731083,https://www.tiktok.com/@duyen5522/video/7481212354420542728,https://www.tiktok.com/embed/7481212354420542728
Làng Tre Phú An,Binh Duong Province,"124 ĐT744, Phú An, Bến Cát, Bình Dương, Việt Nam",11.06647794,106.5846911,https://www.tiktok.com/@duyen5522/video/7572901090581122312,https://www.tiktok.com/embed/7572901090581122312
Công viên Thành Phố Mới,Binh Duong Province,"Phú Mỹ, Tp. Thủ Dầu Một, Bình Dương, Việt Nam",11.04889515,106.6740957,https://www.tiktok.com/@diengne_/video/7352891704027991314,https://www.tiktok.com/embed/7352891704027991314
Vườn Nhà Gốm,Binh Duong Province,"120 Gia Long, Lái Thiêu, Thuận An, Bình Dương 820000, Việt Nam",10.90324065,106.6961713,https://www.tiktok.com/@febtaitedaily/video/7482433250376289544,https://www.tiktok.com/embed/7482433250376289544
Làng gốm Lái Thiêu,Binh Duong Province,"Lái Thiêu, Thuận An, Bình Dương, Việt Nam",10.9066624,106.6992609,https://www.tiktok.com/@tonlonton92/video/7359554606424247553,https://www.tiktok.com/embed/7359554606424247553
Sun World Ba Na Hills,Da Nang City,"Hòa Ninh, Hòa Vang, Đà Nẵng",15.996,107.996,https://www.tiktok.com/@marveatsmelb/video/7359631900803157265,https://www.tiktok.com/embed/7359631900803157265
Sky 36 Bar,Da Nang City,"36 Bạch Đằng, Hải Châu, Đà Nẵng",16.072,108.224,https://www.tiktok.com/@gocnhoannhieu.dng/photo/7490529797416701192,https://www.tiktok.com/embed/7490529797416701192
Chợ Hàn,Da Nang City,"119 Trần Phú, Hải Châu, Đà Nẵng",16.068,108.224,https://www.tiktok.com/@cogaibienkhoi/photo/7394414346027142408,https://www.tiktok.com/embed/7394414346027142408
Làng Nước Mắm Nam Ô,Da Nang City,"Nam Ô, Liên Chiểu, Đà Nẵng",16.1,108.13,https://www.tiktok.com/@hoaithanh.luong/video/7263485319570345223,https://www.tiktok.com/embed/7263485319570345223
Hải Sản Khô / Ốc Ly Pé,Da Nang City,"05 An Trung Đông 3, Sơn Trà, Đà Nẵng",16.06,108.235,https://www.tiktok.com/@oclype79/video/7574084388439313685,https://www.tiktok.com/embed/7574084388439313685
Chả Bò Bà Hường,Da Nang City,"4 Hoàng Diệu, Hải Châu, Đà Nẵng",16.065,108.22,https://www.tiktok.com/@danangdidaudo43/photo/7355368416439536913,https://www.tiktok.com/embed/7355368416439536913
Mắm Dì Cẩn,Da Nang City,"Lô 105 Chợ Hàn, Đà Nẵng",16.068,108.224,https://www.tiktok.com/@mamdican_dacsandanang/video/7479995560708115730,https://www.tiktok.com/embed/7479995560708115730
Bò Khô Hương Đà,Da Nang City,"Ngã 3 Võ Văn Kiệt & Hồ Nghinh, Đà Nẵng",16.062,108.24,https://www.tiktok.com/@kenhcuatienn/video/7303157669710269698,https://www.tiktok.com/embed/7303157669710269698
Mực Rim Đà Nẵng,Da Nang City,"70-72 Võ Văn Kiệt, Sơn Trà, Đà Nẵng",16.06,108.24,https://www.tiktok.com/@danangdidaudo43/photo/7356568808800242945,https://www.tiktok.com/embed/7356568808800242945
Bánh Dừa Nướng Thái Bình,Da Nang City,"Đặc Sản Miền Trung, Đà Nẵng",16.054,108.202,https://www.tiktok.com/@kenhcuatienn/video/7381732871892913429,https://www.tiktok.com/embed/7381732871892913429
Bánh Khô Mè Bà Liễu,Da Nang City,"Cẩm Lệ, Đà Nẵng",16.02,108.2,https://www.tiktok.com/@banhkhome1945/video/7561799983058603284,https://www.tiktok.com/embed/7561799983058603284
Đặc Sản Làm Quà,Da Nang City,"23 An Thượng 26, Ngũ Hành Sơn, Đà Nẵng",16.05,108.245,https://www.tiktok.com/@dacsandananglamquahanigo/video/7398748757841497352,https://www.tiktok.com/embed/7398748757841497352
Dâu Ngọt Café 'n' Souvenir,Da Nang City,"92 Dương Đình Nghệ, Sơn Trà, Đà Nẵng",16.065,108.238,https://www.tiktok.com/@daungot_handmade/video/7412605264009940241,https://www.tiktok.com/embed/7412605264009940241
Leaf Craft,Da Nang City,"Online / Contact Shop, Đà Nẵng",16.054,108.202,https://www.tiktok.com/@leafcraft_lala/photo/7559234520864558354,https://www.tiktok.com/embed/7559234520864558354
ViGift - Đặc Sản Đà Nẵng,Da Nang City,"70-72 Võ Văn Kiệt, Sơn Trà, Đà Nẵng",16.06,108.24,https://www.tiktok.com/@dacsandananglamquavigift/video/7490192996336504119,https://www.tiktok.com/embed/7490192996336504119
Bánh Xèo Bà Dưỡng,Da Nang City,"K280/23 Hoàng Diệu, Hải Châu, Đà Nẵng",16.062,108.217,https://www.tiktok.com/@tandichoidi/video/7551427342321667335,https://www.tiktok.com/embed/7551427342321667335
Chè Sầu Liên,Da Nang City,"189 Hoàng Diệu, Hải Châu, Đà Nẵng",16.06,108.218,https://www.tiktok.com/@chelienbmt_2022/video/7524675235677834514,https://www.tiktok.com/embed/7524675235677834514
Phố Cổ Hội An,Quang Nam Province,"Phường Minh An, Hội An, Quảng Nam",15.88,108.338,https://www.tiktok.com/@alex_onthego/video/7254506620074446086,https://www.tiktok.com/embed/7254506620074446086
Thánh Địa Mỹ Sơn,Quang Nam Province,"Duy Phú, Duy Xuyên, Quảng Nam",15.79,108.107,https://www.tiktok.com/@vand.magazine/photo/7530881629598813448,https://www.tiktok.com/embed/7530881629598813448
Rừng Dừa Bảy Mẫu,Quang Nam Province,"Cẩm Thanh, Hội An, Quảng Nam",15.87,108.37,https://www.tiktok.com/@hanigotravel/video/7493481675679206674,https://www.tiktok.com/embed/7493481675679206674
Làng Rau Trà Quế,Quang Nam Province,"Cẩm Hà, Hội An, Quảng Nam",15.9,108.33,https://www.tiktok.com/@honeyhiu/video/7519471070684941575,https://www.tiktok.com/embed/7519471070684941575
Làng Gốm Thanh Hà,Quang Nam Province,"Phạm Phán, Thanh Hà, Hội An, Quảng Nam",15.884,108.315,https://www.tiktok.com/@may.craft_/video/7541571589230398741,https://www.tiktok.com/embed/7541571589230398741
Bánh Mì Phượng,Quang Nam Province,"2B Phan Chu Trinh, Hội An, Quảng Nam",15.877,108.329,https://www.tiktok.com/@aantje8/video/7582842055530007841,https://www.tiktok.com/embed/7582842055530007841
Nước Mót Hội An,Quang Nam Province,"150 Trần Phú, Hội An, Quảng Nam",15.877,108.327,https://www.tiktok.com/@hichanggne/video/7437493262492945681,https://www.tiktok.com/embed/7437493262492945681
Cơm Gà Bà Buội,Quang Nam Province,"22 Phan Chu Trinh, Hội An, Quảng Nam",15.878,108.329,https://www.tiktok.com/@ancungnhau2210/video/7318675225443388674,https://www.tiktok.com/embed/7318675225443388674
Làng Bích Họa Tam Thanh,Quang Nam Province,"Tam Thanh, Tam Kỳ, Quảng Nam",15.59,108.48,https://www.tiktok.com/@hainvietnam/video/7352749010031037714,https://www.tiktok.com/embed/7352749010031037714
Gạo Retreat,Quang Ngai Province,"Xóm 5, Thôn Thọ Đông, Tịnh Thọ, Sơn Tịnh, Quảng Ngãi",15.2,108.7,https://www.tiktok.com/@quangngaitutrencao/video/7471229658017631496,https://www.tiktok.com/embed/7471229658017631496
Đảo Lý Sơn,Quang Ngai Province,"Huyện đảo Lý Sơn, Quảng Ngãi",15.38,109.117,https://www.tiktok.com/@vtv24news/video/7351299862052359431,https://www.tiktok.com/embed/7351299862052359431
Biển Mỹ Khê Quảng Ngãi,Quang Ngai Province,"Tịnh Khê, Sơn Tịnh, Quảng Ngãi",15.14,108.85,https://www.tiktok.com/@celeb.43/video/7483445413475798273,https://www.tiktok.com/embed/7483445413475798273
Don Cô Thọ,Quang Ngai Province,"Nghĩa Phú, Tư Nghĩa, Quảng Ngãi",15.13,108.84,https://www.tiktok.com/@chuvuongdimorua/video/7337157926097898760,https://www.tiktok.com/embed/7337157926097898760
Thác Trắng Minh Long,Quang Ngai Province,"Thanh An, Minh Long, Quảng Ngãi",14.93,108.68,https://www.tiktok.com/@checkinquangngai76/video/7210287339967450370,https://www.tiktok.com/embed/7210287339967450370
Ba Làng An,Quang Ngai Province,"Bình Châu, Bình Sơn, Quảng Ngãi",15.24,108.92,https://www.tiktok.com/@quangngaididauhe0/video/7515446945196805383,https://www.tiktok.com/embed/7515446945196805383
Chợ Đông Hà,Quang Tri Province,"1 Trần Hưng Đạo, Đông Hà, Quảng Trị",16.82,107.1,https://www.tiktok.com/@amthucquangtri/video/7352911714289028369,https://www.tiktok.com/embed/7352911714289028369
Thành Cổ Quảng Trị,Quang Tri Province,"Phường 2, Thị xã Quảng Trị, Quảng Trị",16.755,107.195,https://www.tiktok.com/@duchieumedia/video/7136859979583114522,https://www.tiktok.com/embed/7136859979583114522
Cầu Hiền Lương,Quang Tri Province,"Vĩnh Thành, Vĩnh Linh, Quảng Trị",17.005,107.005,https://www.tiktok.com/@minhkhanh74qt/video/7499272950990884114,https://www.tiktok.com/embed/7499272950990884114
Bún Hến Mai Xá,Quang Tri Province,"Gio Mai, Gio Linh, Quảng Trị",16.86,107.15,https://www.tiktok.com/@phuoccaheo/video/7316711281984048385,https://www.tiktok.com/embed/7316711281984048385
Chợ Đông Ba,Thua Thien-Hue,"2 Trần Hưng Đạo, Phú Hoà, Huế",16.47,107.58,https://www.tiktok.com/@dacsancodohuecom/video/7534332390626397447,https://www.tiktok.com/embed/7534332390626397447
Đại Nội Huế,Thua Thien-Hue,"Đường 23/8, Thuận Hòa, Huế",16.468,107.578,https://www.tiktok.com/@_trinhhavi_/video/7516484580338044168,https://www.tiktok.com/embed/7516484580338044168
Bún Bò Huế Mệ Kéo,Thua Thien-Hue,"20 Bạch Đằng, Phú Cát, Huế",16.472,107.59,https://www.tiktok.com/@gaihuedireview/video/7535113440310971666,https://www.tiktok.com/embed/7535113440310971666
Chè Hẻm Huế,Thua Thien-Hue,"1 Kiệt 29 Hùng Vương, Phú Hội, Huế",16.465,107.593,https://www.tiktok.com/@ninabaongoc/video/7477066346929343751,https://www.tiktok.com/embed/7477066346929343751
Lăng Khải Định,Thua Thien-Hue,"Thủy Bằng, Hương Thủy, Huế",16.398,107.59,https://www.tiktok.com/@tungnuitravel/video/7376303691386637569,https://www.tiktok.com/embed/7376303691386637569
Làng Hương Thủy Xuân,Thua Thien-Hue,"84 Huyền Trân Công Chúa, Huế",16.435,107.57,https://www.tiktok.com/@khoathuyf/video/7484183413373619464,https://www.tiktok.com/embed/7484183413373619464
Cơm Hến Hoa Đông,Thua Thien-Hue,"64 Kiệt 7 Ưng Bình, Vỹ Dạ, Huế",16.48,107.6,https://www.tiktok.com/@vietnamhanhphuc.vn/video/7523980427862822151,https://www.tiktok.com/embed/7523980427862822151
Chợ Đồng Hới,Quang Binh Province,"Mẹ Suốt, Đồng Hới, Quảng Bình",17.47,106.6,https://www.tiktok.com/@phuocanhqb/video/7534346849315048712,https://www.tiktok.com/embed/7534346849315048712
Động Phong Nha,Quang Binh Province,"Sơn Trạch, Bố Trạch, Quảng Bình",17.58,106.28,https://www.tiktok.com/@flwhector/video/7412638332976450833,https://www.tiktok.com/embed/7412638332976450833
Suối Nước Moọc,Quang Binh Province,"Phúc Trạch, Bố Trạch, Quảng Bình",17.55,106.24,https://www.tiktok.com/@dynnie_102/video/7550306803725208850,https://www.tiktok.com/embed/7550306803725208850
Bánh Lọc Mệ Xuân,Quang Binh Province,"Đường Lê Thành Đồng, Đồng Hới, Quảng Bình",17.475,106.605,https://www.tiktok.com/@langthangquangbinh73/video/7381402638073597185,https://www.tiktok.com/embed/7381402638073597185
Đồi Cát Quang Phú,Quang Binh Province,"Quang Phú, Đồng Hới, Quảng Bình",17.5,106.63,https://www.tiktok.com/@truongtuantravel329/video/7506378525843164424,https://www.tiktok.com/embed/7506378525843164424
Cháo Canh Gia Bảo,Quang Binh Province,"8 Lý Thường Kiệt, Đồng Hới, Quảng Bình",17.468,106.615,https://www.tiktok.com/@dicunghoang/video/7494218549154614536,https://www.tiktok.com/embed/7494218549154614536
Chợ Kon Tum,Kon Tum Province,"Đường Đoàn Thị Điểm, Kon Tum",14.35,108.0,https://www.tiktok.com/@vinhthichanngon/video/7375442938974768391,https://www.tiktok.com/embed/7375442938974768391
Nhà Thờ Gỗ Kon Tum,Kon Tum Province,"Nguyễn Huệ, Thống Nhất, Kon Tum",14.354,108.005,https://www.tiktok.com/@bepnhathoc_hapthuynhiet/video/7584346513883630868,https://www.tiktok.com/embed/7584346513883630868
Măng Đen - Hồ Đak Ke,Kon Tum Province,"Đăk Long, Kon Plông, Kon Tum",14.597,108.293,https://www.tiktok.com/@himangden/video/7580921763291237640,https://www.tiktok.com/embed/7580921763291237640
Thác Pa Sỹ,Kon Tum Province,"Măng Cành, Kon Plông, Kon Tum",14.61,108.28,https://www.tiktok.com/@tungnuitravel/video/7440702091393305864,https://www.tiktok.com/embed/7440702091393305864
Gỏi Lá Út Cưng,Kon Tum Province,"45 Trần Cao Vân, Thống Nhất, Kon Tum",14.35,108.0,https://www.tiktok.com/@ductamali/video/7565559744274910465,https://www.tiktok.com/embed/7565559744274910465
Cầu Treo Kon Klor,Kon Tum Province,"Làng Kon Klor, Kon Tum",14.34,108.02,https://www.tiktok.com/@khamphadatquang/video/7534554491182468370,https://www.tiktok.com/embed/7534554491182468370
Tiệm Cô mèo,Gia Lai Province,"62 Vũ Bảo, Phường Quy Nhơn Nam, Thành phố Quy Nhơn, Gia Lai, Vietnam",13.766396,109.218148,https://www.tiktok.com/@tiem.co.meo/video/7420649307717635336,https://www.tiktok.com/embed/7420649307717635336
Nhặt Quài Biển,Gia Lai Province,"15/542 Võ Nguyên Giáp,",14.512119472501649,109.07986790906656,https://www.tiktok.com/@ggxhhbbjjkkaa1496/video/7537932284733754642,https://www.tiktok.com/embed/7537932284733754642
Miu Miu shop,Gia Lai Province,"36 Hà Huy Tập, Phường Quy Nhơn, Thành phố Quy Nhơn, Tỉnh Gia Lai",13.771224249690755,109.22589766782274,https://www.tiktok.com/@miumiu_quatang/video/7251824045606341894,https://www.tiktok.com/embed/7251824045606341894
Ngọc Hùng Shop,Gia Lai Province,"37 Phan Bội Châu, Phường Quy Nhơn, Thành phố Quy Nhơn, Tỉnh Gia Lai",13.7739607538122,109.23448530670474,https://www.tiktok.com/@quynhontv/video/7275210648492002561,https://www.tiktok.com/embed/7275210648492002561
Tiệm của Thim,Gia Lai Province,"68 Nguyễn Thị Minh Khai, Phường Quy Nhơn Nam, Thành phố Quy Nhơn, Tỉnh Gia Lai",13.769549310577622,109.21806810589842,https://www.tiktok.com/@tiem.cua.thim/video/7544728118129331464,https://www.tiktok.com/embed/7544728118129331464
Làng Nón Ngựa Phú Gia,Gia Lai Province,"Xã Cát Tường, Huyện Phù Cát, Tỉnh Gia Lai",13.975453124855363,109.09178600650344,https://www.tiktok.com/@dulichquynhon/video/7429955205866720529,https://www.tiktok.com/embed/7429955205866720529
Phim Ba:r,Gia Lai Province,"49 Hàm Nghi, Phường Quy Nhơn Nam, Thành phố Quy Nhơn, Tỉnh Gia Lai",13.767398599038987,109.21780232918908,https://www.tiktok.com/@hiquynhon/video/7476071249404251399,https://www.tiktok.com/embed/7476071249404251399
Chợ Phù Cát,Gia Lai Province,"Ba Tháng Hai, Thị trấn Ngô Mây, Huyện Phù Cát, Tỉnh Gia Lai",13.99818679816162,109.06036652924318,https://www.tiktok.com/@khvy_ng/video/7550249527517744402,https://www.tiktok.com/embed/7550249527517744402
Chợ đêm Quy Nhơn,Gia Lai Province,"86 Lê Duẩn, Phường Quy Nhơn, Thành phố Quy Nhơn, Tỉnh Gia Lai",13.764378404176508,109.2211472448942,https://www.tiktok.com/@cu_lao_xanh_travel/video/7321342173276933394,https://www.tiktok.com/embed/7321342173276933394
Chợ Đầm,Gia Lai Province,"159 Hoàng Quốc Việt, Phường Quy Nhơn, Thành phố Quy Nhơn, Tỉnh Gia Lai",13.782766022762978,109.22485375283844,https://www.tiktok.com/@travelqvietnam/video/7483522921521089800,https://www.tiktok.com/embed/7483522921521089800
Chợ khu 6,Gia Lai Province,"Võ Lai, Phường Quy Nhơn Nam, Thành phố Quy Nhơn, Tỉnh Gia Lai",13.766516860667142,109.21565716817796,https://www.tiktok.com/@quankhonggo/video/7271594131447614725,https://www.tiktok.com/embed/7271594131447614725
Chợ Phù Mỹ,Gia Lai Province,"12 Đ. Hồ Công Thuyên, Xã Phù Mỹ, Huyện Phù Mỹ, Tỉnh Gia Lai",14.179212552579592,109.05293922964894,https://www.tiktok.com/@binhdinhquehuong/video/7536526488473029906,https://www.tiktok.com/embed/7536526488473029906
Đặc sản Thu Loan,Gia Lai Province,"226 Phan Đình Giót, Phường Pleiku, Thành phố Pleiku, Tỉnh Gia Lai",13.980804657305766,108.0072030602881,https://www.tiktok.com/@soccon113/video/7435853718081359111,https://www.tiktok.com/embed/7435853718081359111
Daydreamer Vale,Gia Lai Province,"Hẻm 224 Huỳnh Thúc Kháng, Phường Diên Hồng, Thành phố Pleiku, Tỉnh Gia Lai",13.984465632722149,107.98651680588142,https://www.tiktok.com/@shophandmadeotronghem/video/7569444354725563656,https://www.tiktok.com/embed/7569444354725563656
Zoey concept,Gia Lai Province,"139A Tô Vĩnh Diện, Phường Pleiku, Thành phố Pleiku, Tỉnh Gia Lai",13.990287750005924,108.0142117528872,https://www.tiktok.com/@pleiku.day/video/7451434898264542471,https://www.tiktok.com/embed/7451434898264542471
danhan.phuyen,Dak Lak Province,"04 Nguyễn Văn Cừ, Phường Tuy Hòa, Tỉnh Đắk Lắk",13.097287987720785,109.31374241405732,https://www.tiktok.com/@danhan.phuyen/video/7518260752453471496,https://www.tiktok.com/embed/7518260752453471496
Làng nghề dệt chiếu,Dak Lak Province,"Phú Tân, Xã Ô Loan, Huyện Tuy An, Tỉnh Đắk Lắk",13.28986628178327,109.25504963654642,https://www.tiktok.com/@dulichquynhon/video/7556830649848532245,https://www.tiktok.com/embed/7556830649848532245
Thanh Nga shop,Dak Lak Province,"329 Trường Chinh, Phường 7, Thành phố Tuy Hòa, Tỉnh Đắk Lắk",13.100871068715358,109.31210658647484,https://www.tiktok.com/@didauangivn/video/7427147331084111112,https://www.tiktok.com/embed/7427147331084111112
Lê Hằng gifts,Dak Lak Province,"120 Nguyễn Thị Minh Khai, Phường 7, Thành phố Tuy Hòa, Tỉnh Đắk Lắk",13.099140234237964,109.31077485133184,https://www.tiktok.com/@ngogiaphuyen/video/7372549048676470024,https://www.tiktok.com/embed/7372549048676470024
Dã Nhạn,Dak Lak Province,"15 Trương Kiểm, phường Tuy Hòa,Tỉnh Đắk Lắk",13.11233835601841,109.299457858232,https://www.tiktok.com/@didauangivn/video/7566272940040326421,https://www.tiktok.com/embed/7566272940040326421
Đặc sản địa phương,Dak Lak Province,"293 Lê Duẩn, Phường 7, Thành phố Tuy Hòa, Tỉnh Đắk Lắk",13.098636931965869,109.31717406667498,https://www.tiktok.com/@angididaupy/video/7499395623871859984,https://www.tiktok.com/embed/7499395623871859984
tiemsocomay,Dak Lak Province,"55 Nguyễn Văn Cừ, Phường 7, Thành phố Tuy Hòa, Tỉnh Đắk Lắk",13.098215473378762,109.31455463530337,https://www.tiktok.com/@tiemsocomay_01/video/7529905103780744466,https://www.tiktok.com/embed/7529905103780744466
1997 Ceramic-Gốm Phú Yên,Dak Lak Province,"55 Nguyễn Văn Cừ, Phường 7, Thành phố Tuy Hòa, Tỉnh Đắk Lắk",13.311014934985726,109.3036072319983,https://www.tiktok.com/@1997.ceramic.th.py.78/video/7558483111739231495,https://www.tiktok.com/embed/7558483111739231495
cafe POPS,Dak Lak Province,"58 Lê Thánh Tông, Tân Lợi, Buôn Ma Thuột,Tỉnh Đắk Lắk",12.68805534799798,108.05083733649302,https://www.tiktok.com/@vnptvinaphonedaklak/video/7475564006313430279,https://www.tiktok.com/embed/7475564006313430279
Bo Bo mart,Dak Lak Province,"Chợ Tân An, 170 Ngô Quyền, Tân An, Buôn Ma Thuột,Tỉnh Đắk Lắk",12.69394735300556,108.06123170903716,https://www.tiktok.com/@trinhchibmt/video/7501918475300900117,https://www.tiktok.com/embed/7501918475300900117
Đặc sản BMT,Dak Lak Province,"88 Điện Biên Phủ, Phường Thành Công, Buôn Ma Thuột, Tỉnh Đắk Lắk",12.68282501424858,108.04236978276565,https://www.tiktok.com/@tongquataynguyendaklak/video/7501905594303958280,https://www.tiktok.com/embed/7501905594303958280
Grand Opening,Dak Lak Province,"123 Đinh Công Tráng,Tân tiến, Buôn Ma Thuột,Tỉnh Đắk Lắk",12.67857797054814,108.03136467917908,https://www.tiktok.com/@quatangbanme/video/7309101765582933256,https://www.tiktok.com/embed/7309101765582933256
PiiLen,Dak Lak Province,"6-24 Phùng Chí Kiên,Tân tiến, Buôn Ma Thuột,Tỉnh Đắk Lắk",12.682824273541147,108.0339106575536,https://www.tiktok.com/@piorry.ghienmoclen/video/7529850042283248903,https://www.tiktok.com/embed/7529850042283248903
SUMO,Dak Lak Province,"144-162 Hà Huy Tập,Tân Lợi, Buôn Ma Thuột,Tỉnh Đắk Lắk",12.702840560420029,108.06076418456612,https://www.tiktok.com/@dacsantaynguyensumo/video/7361251607763291400,https://www.tiktok.com/embed/7361251607763291400
Mỹ Phẩm,Dak Lak Province,"68 Đồng Khởi, Buôn Ma Thuột, Tỉnh Đắk Lắk",12.706283927801625,108.0610967785166,https://www.tiktok.com/@chiemmandepp/video/7373125079099608327,https://www.tiktok.com/embed/7373125079099608327
Nha Man food,Khanh Hoa Province,"Ngọc Hiệp,Nha Trang,Tỉnh Khánh Hòa",12.2555886228189,109.1770351575396,https://www.tiktok.com/@shopanvat41/photo/7556225503150165255,
Vĩnh Hy handmade,Khanh Hoa Province,"Xã Vĩnh Hải, Huyện Ninh Hải, Tỉnh Khánh Hòa",11.726136865511988,109.19668311672012,https://www.tiktok.com/@vinhhy.house/video/7507241780723682578,https://www.tiktok.com/embed/7507241780723682578
Nghiệp Accessories,Khanh Hoa Province,"Nguyên Hồng, Phường Phan Rang, Thành phố Phan Rang - Tháp Chàm, Tỉnh Khánh Hòa",11.569036640220796,108.99778679993064,https://www.tiktok.com/@co2ninhthuan/video/7394777566881565959,https://www.tiktok.com/embed/7394777566881565959
Labata,Lam Dong Province,"3 Đường Tăng Bạt Hổ, Phường Xuân Hương - Đà Lạt, Thành phố Đà Lạt, Tỉnh Lâm Đồng",11.943733796882364,108.43515804221556,https://www.tiktok.com/@linhdidodiday/video/7522834650893454610,https://www.tiktok.com/embed/7522834650893454610
Chốn Bình Yên,Lam Dong Province,"Số 19 Lê Đại Hành, Phường Xuân Hương - Đà Lạt, Thành phố Đà Lạt, Tỉnh Lâm Đồng",11.959563607553,108.42702697105554,https://www.tiktok.com/@chonbinhyenvn/video/7574369692064795912,https://www.tiktok.com/embed/7574369692064795912
Song Sinh house,Lam Dong Province,"01 Nguyễn Công Trứ, Phường 8, Thành phố Đà Lạt, Tỉnh Lâm Đồng",11.954571686531764,108.44166862873706,https://www.tiktok.com/@songsinhhouse/video/7491739203240250632,https://www.tiktok.com/embed/7491739203240250632
Lata's DaLat,Lam Dong Province,"30 Pasteur, Phường Xuân Hương - Đà Lạt, Thành phố Đà Lạt, Tỉnh Lâm Đồng ",11.9428773075748,108.43646344220625,https://www.tiktok.com/@bethanhne_02/video/7531993190677679378,https://www.tiktok.com/embed/7531993190677679378
Outstanda handcraft DaLat,Lam Dong Province,"100/2 Yersin, Phường 10, Thành phố Đà Lạt, Tỉnh Lâm Đồng",11.942613504327246,108.45177376922966,https://www.tiktok.com/@dichillvoinhi/video/7552120359168789768,https://www.tiktok.com/embed/7552120359168789768
Dalat Railway Station,Lam Dong Province,"Phường 10, Thành Phố Đà Lạt,Tỉnh Lâm Đồng",11.941735024672871,108.45458537362488,https://www.tiktok.com/@xuxudalat89/video/7444214437101309202,https://www.tiktok.com/embed/7444214437101309202
Little Town,Lam Dong Province,"14 Ba Tháng Hai, Phường Xuân Hương - Đà Lạt, Thành phố Đà Lạt, Tỉnh Lâm Đồng",11.9432370801665,108.43521634040374,https://www.tiktok.com/@trongtamdalat/video/7393305082546228488,https://www.tiktok.com/embed/7393305082546228488
Koli Kochi,Lam Dong Province,"47 Đường Thông Thiên Học, Phường Xuân Hương - Đà Lạt, Thành phố Đà Lạt, Tỉnh Lâm Đồng",11.953521668194664,108.43733134223427,https://www.tiktok.com/@tuila.thien/video/7557713601327336712,https://www.tiktok.com/embed/7557713601327336712
The Choco,Lam Dong Province,"3-23 Đường Tăng Bạt Hổ, Phường Xuân Hương - Đà Lạt, Thành phố Đà Lạt, Tỉnh Lâm Đồng",11.943620690124728,108.43525339988696,https://www.tiktok.com/@tuila.thien/video/7452335299041955079,https://www.tiktok.com/embed/7452335299041955079
Little Town,Lam Dong Province,"10 Ba Tháng Hai, Phường Xuân Hương - Đà Lạt, Thành phố Đà Lạt, Tỉnh Lâm Đồng",11.9432370801665,108.43521634040374,https://www.tiktok.com/@wigo.southvietnam/video/7540526151349914888,https://www.tiktok.com/embed/7540526151349914888
Đồ Đac,Lam Dong Province,"83-5 Phan Bội Châu, Phường Xuân Hương - Đà Lạt, Thành phố Đà Lạt, Tỉnh Lâm Đồng",11.944344952822554,108.437270421028,https://www.tiktok.com/@miakirakira/video/7175898934039072026,https://www.tiktok.com/embed/7175898934039072026
Vỏ Sò,Lam Dong Province,"Bờ Kè Ngũ Phụng, Hùng Vương, Đặc khu Phú Quý, Tỉnh Lâm Đồng",10.530739229134554,108.92848909468935,https://www.tiktok.com/@chupchoetsaigon/video/7492065905392766226,https://www.tiktok.com/embed/7492065905392766226
Nhà B&M,Lam Dong Province,"44 Lê Quí Đôn, Phường Hàm Thắng, Thành phố Phan Thiết, Tỉnh Lâm Đồng",10.98402229211221,108.09808729920798,https://www.tiktok.com/@bmphanthiet/video/7426234316008606994,https://www.tiktok.com/embed/7426234316008606994
OcBien,Lam Dong Province,"18 Nguyễn Gia Tú, Phường Phú Thủy, Thành phố Phan Thiết, Tỉnh Lâm Đồng",10.941252740287927,108.10446781340212,https://www.tiktok.com/@ocbienpt/video/7541754291229297928,https://www.tiktok.com/embed/7541754291229297928
Panadanus Resort,Lam Dong Province,"Số 3 Đường Nguyễn Hữu Thọ, Phường Mũi Né, Thành phố Phan Thiết, Tỉnh Lâm Đồng",10.945208806618606,108.2969813556692,https://www.tiktok.com/@pandanusresortmuine/video/7535076906010430728,https://www.tiktok.com/embed/7535076906010430728
workshopss7,Lam Dong Province,"Cao Hành, Phường Phan Thiết, Thành phố Phan Thiết, Tỉnh Lâm Đồng",10.93637311077988,108.10320992689006,https://www.tiktok.com/@workshopss7/video/7434415200020794632,https://www.tiktok.com/embed/7434415200020794632
Móc Khoá ở Ấm,Lam Dong Province,"186 Nguyễn An Ninh, phường Đức Linh, Tỉnh Lâm Đồng",11.192018384788447,107.57124369990716,https://www.tiktok.com/@nha.am.handmade/video/7582167706544147720,https://www.tiktok.com/embed/7582167706544147720
Tiệm Len Nhà Xu,Dong Nai Province,"Đường 18, Khu tái định cư Lộc An - Bình Sơn, Xã Lộc An, Huyện Long Thành, Tỉnh Đồng Nai",10.8029804949981,106.99958744222958,https://www.tiktok.com/@tiemlennhaxu08/video/7478852633260870929,https://www.tiktok.com/embed/7478852633260870929
PuNi,Dong Nai Province,"Tử Giang, phường Tam Hiệp, Đồng Nai",10.96108342939034,106.84325331342323,https://www.tiktok.com/@punihome.official/video/7542841234600021255,https://www.tiktok.com/embed/7542841234600021255
Vincom Biên Hòa,Dong Nai Province,"1096 Phạm Văn Thuận, Tân Mai, Biên Hòa, Đồng Nai",10.95810739501521,106.84324078447015,https://www.tiktok.com/@vanhungvinfast/video/7404703185585196296,https://www.tiktok.com/embed/7404703185585196296
Nhà Thỏ Mây,Dong Nai Province,"998 Phú Riềng Đỏ,Đồng Xoài, Đồng Nai  ",11.53486938693534,106.9005310845583,https://www.tiktok.com/@lacabinhphuoc/video/7529470099519016199,https://www.tiktok.com/embed/7529470099519016199
Tiệm Ếch Jasmine,Dong Nai Province,"Đường Phạm Hồng Thái, Phường Chơn Thành, Thị xã Chơn Thành, Tỉnh Đồng Nai",11.424624401818129,106.61428987495914,https://www.tiktok.com/@tiemech.jasmine/video/7382958717857254674,https://www.tiktok.com/embed/7382958717857254674
sóc Bom Bo,Dong Nai Province,"620 QL14, Phường Bình Phước, Thành phố Đồng Xoài, Tỉnh Đồng Nai",11.53404273880654,106.889199642214,https://www.tiktok.com/@bombo93binhphuoc/video/7472690959147371783,https://www.tiktok.com/embed/7472690959147371783
thegioiquatang,Dong Nai Province,"754-336 Phú Riềng Đỏ, Phường Bình Phước, Thành phố Đồng Xoài, Tỉnh Đồng Nai",11.528916404178386,106.89473074165628,https://www.tiktok.com/@thegioiquatang.official/video/7387022098616683793,https://www.tiktok.com/embed/7387022098616683793
Vu seashells,Ho Chi Minh City,"53-51 Phan Chu Trinh, Phường Vũng Tàu, Thành phố Vũng Tàu, Thành phố Hồ Chí Minh",10.336531507567605,107.08139862872852,https://www.tiktok.com/@mynghethanhthem.seashell/video/7581423047387794695,https://www.tiktok.com/embed/7581423047387794695
Handmade,Ho Chi Minh City,"11 Trần Quý Cáp, Phường Vũng Tàu, Thành phố Vũng Tàu, Thành phố Hồ Chí Minh",10.339617468820904,107.09092231336086,https://www.tiktok.com/@huy.i.chill/video/7448879580334542087,https://www.tiktok.com/embed/7448879580334542087
Mỹ Nghệ Thanh Thêm,Ho Chi Minh City," 51 Phan Chu Trinh, Phường Vũng Tàu, Thành phố Vũng Tàu, Thành phố Hồ Chí Minh",10.336531507567605,107.08139862872852,https://www.tiktok.com/@dulichtinhbariavungtau/video/7582927526679301397,https://www.tiktok.com/embed/7582927526679301397
The NeO Phước Hải,Ho Chi Minh City,"137 Nguyễn Văn Linh, Phường Phước Hải, Thành phố Hồ Chí Minh",10.431298606177457,107.29149053058244,https://www.tiktok.com/@phukienphuochai.luuniem/video/7535647204262825224,https://www.tiktok.com/embed/7535647204262825224
Cam trong Hẻm,Ho Chi Minh City,"173/2 Đường 17/4, Phước Hưng, Phường Bà Rịa, Thành Phố Hồ Chí Minh",10.51984269911974,107.18460131064155,https://www.tiktok.com/@tuiovungtau/video/7533175975610158344,https://www.tiktok.com/embed/7533175975610158344
Mơ Màng,Ho Chi Minh City,"215/29 Xô Viết Nghệ Tĩnh, Phường Vũng Tàu, Thành phố Hồ Chí Minh",10.351157798971888,107.0878382845528,https://www.tiktok.com/@khoanhkhachotel/video/7580231664828189959,https://www.tiktok.com/embed/7580231664828189959
OcHuong,Ho Chi Minh City,"12ô3/37 Lâm Văn Võ, Phường Phước Hải, Thành phố Hồ Chí Minh",10.418109859421604,107.28224935577528,https://www.tiktok.com/@ochuongphuochai/video/7529080442788580609,https://www.tiktok.com/embed/7529080442788580609
Zamy Shop,Ha Noi,"247 P. Chùa Bộc, Trung Liệt, Đống Đa, Hà Nội, Việt Nam",21.008851,105.825595,https://www.tiktok.com/@phamngocanh4895/video/7381112883700124936,https://www.tiktok.com/embed/7381112883700124936
chợ Đồng Xuân,Ha Noi,"Đồng Xuân, Hoàn Kiếm, Hà Nội 100000, Việt Nam",21.037907,105.850098,https://www.tiktok.com/@linhbellatravel/video/7350694618385632514,https://www.tiktok.com/embed/7350694618385632514
Nhà Sách Thăng Long,Ha Noi,"143 Đ. Trần Phú, P. Văn Quán, Hà Đông, Hà Nội 100000, Việt Nam",20.977742,105.785047,https://www.tiktok.com/@thanglongbook/video/7582601035978476808,https://www.tiktok.com/embed/7582601035978476808
Lotte Mall Tây Hồ,Ha Noi,"272 Đ. Võ Chí Công, Phú Thượng, Tây Hồ, Hà Nội, Việt Nam",21.075781,105.814084,https://www.tiktok.com/@camelliars.boutique/video/7270401956743482629,https://www.tiktok.com/embed/7270401956743482629
Chợ Thái,Ha Noi,"HRXV+PF9, Đ. Bến Tượng, Trưng Vương, Thành phố Thái Nguyên, Thái Nguyên, Việt Nam",21.599156,105.844514,https://www.tiktok.com/@slamluonlow/video/7528415356797422855,https://www.tiktok.com/embed/7528415356797422855
Mít Shop,Thai Nguyen Province,"14 Đê Nông Lâm, Quang Trung, Thành phố Thái Nguyên, Thái Nguyên, Việt Nam",21.600534,105.819441, https://www.tiktok.com/@thainguyentattantatt/video/7571390054279613717,https://www.tiktok.com/embed/7571390054279613717
Tiệm vay Mina,Thai Nguyen Province,"Đ. Việt Bắc, Quang Trung, Thành phố Thái Nguyên, Thái Nguyên 24000, Việt Nam",21.596323323937263,105.81602132123486,https://www.tiktok.com/@tiemvay.mina/video/7523562210686160136,https://www.tiktok.com/embed/7523562210686160136
Xiao Mart,Bac Giang Province,"257 Đ. Nguyễn Gia Thiều, P.Tiền An, Bắc Ninh, 16000, Việt Nam",21.18103020370783,106.06608892744184,https://www.tiktok.com/@anchoibacninh/video/7498920964500049159,https://www.tiktok.com/embed/7498920964500049159
Cửa hàng đồng giá 15k,Bac Giang Province,"24 Đ. Dương Đình Nghệ, Phượng Mao, Quế Võ, Bắc Ninh, Việt Nam",21.153950074663065,106.1405037,https://www.tiktok.com/@doclabacninh/video/7349146715175357703,https://www.tiktok.com/embed/7349146715175357703
Thời trang MORI,Ha Giang Province,"16 Nguyễn Văn Linh, P. Quang Trung, Hà Giang, Việt Nam",22.83420019125888,104.9831360563298,https://www.tiktok.com/@thoitrangmory/video/7344941433738071298,https://www.tiktok.com/embed/7344941433738071298
Shop Kiều Hương,Ha Giang Province,"70 Đ. Trần Phú, P. Minh Khai, Hà Giang, Việt Nam",22.82047177092449,104.987406654493,https://www.tiktok.com/@kieuhuong2711/video/7578177565173615890,https://www.tiktok.com/embed/7578177565173615890
Hpet-Siêu thị thú cưng Thanh Hoá,Thanh Hoa Province,"271 Tống Duy Tân, P. Lam Sơn, Thanh Hóa, Việt Nam",19.804356,105.77716045086392,https://www.tiktok.com/@lylythanhhoa/video/7437770606151568647,https://www.tiktok.com/embed/7437770606151568647
shop 2hand,Thanh Hoa Province,"73 Đào Duy Từ, P. Ba Đình, Thanh Hóa, 02373, Việt Nam",19.800550517916832,105.77930278440304,https://www.tiktok.com/@reviewthanhhoa36/video/7203607359711677722,https://www.tiktok.com/embed/7203607359711677722
Vincom Plaza Thanh Hóa,Thanh Hoa Province,"27 Đ. Trần Phú, Khu đô thị mới, Thanh Hóa, 40120, Việt Nam",19.810274963323685,105.77767846113102,https://www.tiktok.com/@vincom.plaza.thanhhoa/video/7554084485831200018,https://www.tiktok.com/embed/7554084485831200018
GO! Thanh Hóa,Thanh Hoa Province,"Phố Đồng Lễ, P. Đông Hải, TP. Thanh Hóa, Việt Nam",19.805482,105.802067,https://www.tiktok.com/@thanhhoathodia/video/7410413036709612801,https://www.tiktok.com/embed/7410413036709612801
Co.opmart Thanh Hóa,Thanh Hoa Province,"18 Phan Chu Trinh, P. Điện Biên, TP. Thanh Hóa, Việt Nam",19.8123,105.773872,https://www.tiktok.com/@co.opmart.thanhhoa/video/7498374506545679624,https://www.tiktok.com/embed/7498374506545679624
Chợ Vườn Hoa,Thanh Hoa Province,"Đầu mối Lê Hoàn, P. Lam Sơn, TP. Thanh Hóa, Việt Nam",19.806701,105.780968,https://www.tiktok.com/@thanhhoapov/video/7477904749933677844,https://www.tiktok.com/embed/7477904749933677844
Chợ Tây Thành,Thanh Hoa Province,"288 Nguyễn Trãi, P. Điện Biên, TP. Thanh Hóa, Việt Nam",19.804066,105.769705,https://www.tiktok.com/@chillxuthanh/video/7278621838203227394,https://www.tiktok.com/embed/7278621838203227394
Chợ Đầu Mối Thanh Hóa,Thanh Hoa Province,"Đường Nguyễn Mộng Tuân, P. Đông Hương, TP. Thanh Hóa, Việt Nam",19.812918,105.730377,https://www.tiktok.com/@lamconmetuyet64/video/7293517587844058386,https://www.tiktok.com/embed/7293517587844058386
Savani Thanh Hóa,Thanh Hoa Province,"360 Trần Phú, P. Ba Đình, TP. Thanh Hóa, Việt Nam",19.8085,105.776,https://www.tiktok.com/@riviuthanhhoa/video/7372386326647180562,https://www.tiktok.com/embed/7372386326647180562
IVY moda Thanh Hóa,Thanh Hoa Province,"36 Quang Trung, P. Ngọc Trạo, TP. Thanh Hóa, Việt Nam",19.8025,105.779,https://www.tiktok.com/@chondocungnang/video/7277575130593725697,https://www.tiktok.com/embed/7277575130593725697
Nem Chua Cây Đa,Thanh Hoa Province,"326 Trường Thi, P. Điện Biên, TP. Thanh Hóa, Việt Nam",19.8075,105.772,https://www.tiktok.com/@anhchoun/video/7522136683911941396,https://www.tiktok.com/embed/7522136683911941396
5S Fashion Thanh Hóa,Thanh Hoa Province,"240 Lê Hoàn, P. Ba Đình, TP. Thanh Hóa, Việt Nam",19.812,105.7805,https://www.tiktok.com/@5sfashion.thanhhoa2/video/7450439535411989778,https://www.tiktok.com/embed/7450439535411989778
Vincom Plaza Hạ Long,Quang Ninh Province,"Khu Cột Đồng Hồ, P. Bạch Đằng, TP. Hạ Long, Việt Nam",20.9547,107.0844,https://www.tiktok.com/@ngquynhdh95/video/7401014082599406865,https://www.tiktok.com/embed/7401014082599406865
GO! Hạ Long,Quang Ninh Province,"Cột 5, P. Hồng Hải, TP. Hạ Long, Việt Nam",20.9642,107.109,https://www.tiktok.com/@sieuthigo_halong/video/7560143286036368660,https://www.tiktok.com/embed/7560143286036368660
Chợ Hạ Long 1,Quang Ninh Province,"Đường Bạch Đằng, TP. Hạ Long, Việt Nam",20.9491,107.0794,https://www.tiktok.com/@voiminhonquangninh/video/7289031647343791368,https://www.tiktok.com/embed/7289031647343791368
Chợ Cái Dăm,Quang Ninh Province,"Đường Tiên Ông, P. Bãi Cháy, TP. Hạ Long, Việt Nam",20.9613,107.0366,https://www.tiktok.com/@nguyenmanhlinh8386/video/7517813779220991239,https://www.tiktok.com/embed/7517813779220991239
Chợ Đêm Hạ Long (Night Market),Quang Ninh Province,"Đại lộ Hạ Long Marine, P. Bãi Cháy, TP. Hạ Long, Việt Nam",20.9669,107.027,https://www.tiktok.com/@missyoulx/video/7391390203849575687,https://www.tiktok.com/embed/7391390203849575687
Vincom Plaza Móng Cái,Quang Ninh Province,"Đại Lộ Hoà Bình, P. Trần Phú, TP. Móng Cái, Việt Nam",21.5367,107.9692,https://www.tiktok.com/@sang.sky.2001/video/7471149258603826450,https://www.tiktok.com/embed/7471149258603826450
Chợ Trung Tâm Móng Cái,Quang Ninh Province,"Đường Trần Phú, TP. Móng Cái, Việt Nam",21.5323,107.9657,https://www.tiktok.com/@hangquangchaugiaremc/video/7317246388285230338,https://www.tiktok.com/embed/7317246388285230338
Chợ Cẩm Phả,Quang Ninh Province,"Đường Tô Hiệu, TP. Cẩm Phả, Việt Nam",21.0264,107.2803,https://www.tiktok.com/@chotruyenthong5.0/video/7407268633090477330,https://www.tiktok.com/embed/7407268633090477330
YODY Hạ Long,Quang Ninh Province,"288 Cao Thắng, TP. Hạ Long, Việt Nam",20.9605,107.1001,https://www.tiktok.com/@yodyofficial.studio/video/7579169424289123600,https://www.tiktok.com/embed/7579169424289123600
Hải Sản Ông Ba,Quang Ninh Province,"Khu phố cổ Sunworld, P. Bãi Cháy, TP. Hạ Long, Việt Nam",20.957,107.034,https://www.tiktok.com/@huybanca14/video/7562377344661359873,https://www.tiktok.com/embed/7562377344661359873
Aeon Mall Hải Phòng Lê Chân,Hai Duong Province,"10 Võ Nguyên Giáp, P. Kênh Dương, Q. Lê Chân, Hải Phòng, Việt Nam",20.8353,106.6696,https://www.tiktok.com/@aeonmallhaiphonglechan/video/7519357478614650130,https://www.tiktok.com/embed/7519357478614650130
Vincom Plaza Imperia,Hai Duong Province,"1 Bạch Đằng, P. Thượng Lý, Q. Hồng Bàng, Hải Phòng, Việt Nam",20.8653,106.6578,https://www.tiktok.com/@haiphongholic/video/7408842686364470546,https://www.tiktok.com/embed/7408842686364470546
GO! Hải Phòng,Hai Duong Province,"Lô 1/20 Khu đô thị mới Ngã Năm, Sân bay Cát Bi, Hải Phòng, Việt Nam",20.8576,106.6961,https://www.tiktok.com/@hoacaibay/video/7520608126358277383,https://www.tiktok.com/embed/7520608126358277383
Chợ Cát Bi,Hai Duong Province,"Đường Cát Bi, P. Thành Tô, Q. Hải An, Hải Phòng, Việt Nam",20.8306,106.7077,https://www.tiktok.com/@quankhonggo/video/7284938638251592961,https://www.tiktok.com/embed/7284938638251592961
Chợ Ga (Chợ Phú Thái),Hai Duong Province,"14 Phan Bội Châu, P. Quang Trung, Q. Hồng Bàng, Hải Phòng, Việt Nam",20.8596,106.6806,https://www.tiktok.com/@haiphonglocal/video/7334266053834329362,https://www.tiktok.com/embed/7334266053834329362
Chợ Đổ (Chợ Tam Bạc),Hai Duong Province,"Đường Phan Bội Châu, P. Phan Bội Châu, Q. Hồng Bàng, Hải Phòng, Việt Nam",20.8592,106.683,https://www.tiktok.com/@nguoicontraihaiphong/video/7455656601073077511,https://www.tiktok.com/embed/7455656601073077511
Chợ Núi Đèo,Hai Duong Province,"TT. Núi Đèo, H. Thủy Nguyên, Hải Phòng, Việt Nam",20.9328,106.6385,https://www.tiktok.com/@damdahaiphong/video/7566124241049963784,https://www.tiktok.com/embed/7566124241049963784
Mega Market Hồng Bàng,Hai Duong Province,"2A Hồng Bàng, P. Sở Dầu, Q. Hồng Bàng, Hải Phòng, Việt Nam",20.869,106.6433,https://www.tiktok.com/@lengoctoan2005/video/7249659073547783430,https://www.tiktok.com/embed/7249659073547783430
Phố đi bộ Thế Lữ (Chợ Đêm),Hai Duong Province,"Phố Thế Lữ, P. Hạ Lý, Q. Hồng Bàng, Hải Phòng, Việt Nam",20.863,106.678,https://www.tiktok.com/@haiphongtodaytv/video/7387058515828952327,https://www.tiktok.com/embed/7387058515828952327
YODY Hải Phòng,Hai Duong Province,"96 Nguyễn Đức Cảnh, P. An Biên, Q. Lê Chân, Hải Phòng, Việt Nam",20.856,106.685,https://www.tiktok.com/@dtm_203/video/7420757323838229778,https://www.tiktok.com/embed/7420757323838229778
Lotte Mart Vinh,Nghe An Province,"494 V.I. Lê Nin, P. Hà Huy Tập, TP. Vinh, Nghệ An, Việt Nam",18.6946,105.6796,https://www.tiktok.com/@ngheanreview37/video/7573306813114846471,https://www.tiktok.com/embed/7573306813114846471
Vincom Plaza Thái Phiên,Nghe An Province,"01 Quang Trung, P. Quang Trung, TP. Vinh, Nghệ An, Việt Nam",18.6744,105.6749,https://www.tiktok.com/@takundichoi/video/7372941480622624007,https://www.tiktok.com/embed/7372941480622624007
GO! Vinh (Big C cũ),Nghe An Province,"02 Quang Trung, P. Quang Trung, TP. Vinh, Nghệ An, Việt Nam",18.6765,105.676,https://www.tiktok.com/@lena_review/video/7441871696681766162,https://www.tiktok.com/embed/7441871696681766162
Chợ Vinh,Nghe An Province,"Đường Cao Thắng, P. Hồng Sơn, TP. Vinh, Nghệ An, Việt Nam",18.6702,105.6814,https://www.tiktok.com/@ngocanh_ancathegioi/video/7475763911887719688,https://www.tiktok.com/embed/7475763911887719688
Chợ Ga Vinh,Nghe An Province,"1 Phan Bội Châu, P. Lê Lợi, TP. Vinh, Nghệ An, Việt Nam",18.6811,105.6702,https://www.tiktok.com/@anhemxitxit/video/7300539271256100103,https://www.tiktok.com/embed/7300539271256100103
Chợ Hải Sản Cửa Lò,Nghe An Province,"Đường Nguyễn Xí, P. Thu Thủy, TX. Cửa Lò, Nghệ An, Việt Nam",18.799,105.73,https://www.tiktok.com/@lacacualo/video/7390521527470509319,https://www.tiktok.com/embed/7390521527470509319
Phố đi bộ TP Vinh,Nghe An Province,"Đường Hồ Tùng Mậu, P. Trường Thi, TP. Vinh, Nghệ An, Việt Nam",18.667,105.673,https://www.tiktok.com/@yencherry.1708/video/7518763983856291079,https://www.tiktok.com/embed/7518763983856291079
Trung tâm giải trí VRC,Nghe An Province,"01 Phan Bội Châu, P. Lê Lợi, TP. Vinh, Nghệ An, Việt Nam",18.681,105.669,https://www.tiktok.com/@ngheanreview37/video/7260068078954745095,https://www.tiktok.com/embed/7260068078954745095
YODY Nguyễn Văn Cừ,Nghe An Province,"110 Nguyễn Văn Cừ, P. Hưng Bình, TP. Vinh, Nghệ An, Việt Nam",18.683,105.674,https://www.tiktok.com/@npthao9x/video/7571055157476199700,https://www.tiktok.com/embed/7571055157476199700
Elise Nghệ An,Nghe An Province,"226 Nguyễn Văn Cừ, P. Hưng Phúc, TP. Vinh, Nghệ An, Việt Nam",18.684,105.675,https://www.tiktok.com/@choufleur16/video/7484461574204214546,https://www.tiktok.com/embed/7484461574204214546
Chợ Phố Hiến,Hung Yen Province,"Đường Điện Biên Phủ, P. Quang Trung, TP. Hưng Yên, Việt Nam",20.6462,106.0515,https://www.tiktok.com/@baothanhnien.official/video/7360559710174547216,https://www.tiktok.com/embed/7360559710174547216
Khu đô thị Ecopark (Phố Trúc),Hung Yen Province,"Xã Xuân Quan, H. Văn Giang, Hưng Yên, Việt Nam",20.963,105.922,https://www.tiktok.com/@eggyolkcoffee_/video/7362131533249006849,https://www.tiktok.com/embed/7362131533249006849
Chợ Bao Bì,Hung Yen Province,"Phố Nối, P. Bần Yên Nhân, TX. Mỹ Hào, Hưng Yên, Việt Nam",20.9275,106.062,https://www.tiktok.com/@baothanhnien.official/video/7365868850866425104,https://www.tiktok.com/embed/7365868850866425104
TTTM Như Quỳnh Center,Hung Yen Province,"TT. Như Quỳnh, H. Văn Lâm, Hưng Yên, Việt Nam",20.992,105.975,https://www.tiktok.com/@aluxuongpho85/video/7195890766693125402,https://www.tiktok.com/embed/7195890766693125402
Chợ Gạo,Hung Yen Province,"Đường Trưng Trắc, P. Minh Khai, TP. Hưng Yên, Việt Nam",20.655,106.052,https://www.tiktok.com/@reviewhungyenbynhun/video/7499776324307930386,https://www.tiktok.com/embed/7499776324307930386
Chợ Nôm (Chợ cổ),Hung Yen Province,"Làng Nôm, Xã Đại Đồng, H. Văn Lâm, Hưng Yên, Việt Nam",20.945,106.002,https://www.tiktok.com/@reviewhungyenbynhun/video/7532108257066831122,https://www.tiktok.com/embed/7532108257066831122
YODY Hưng Yên,Hung Yen Province,"535 Nguyễn Văn Linh, P. An Tảo, TP. Hưng Yên, Việt Nam",20.665,106.05,https://www.tiktok.com/@thuhien_189/video/7578724480604818709,https://www.tiktok.com/embed/7578724480604818709
Làng nghề Tương Bần (Các cửa hàng),Hung Yen Province,"QL5, TT. Bần Yên Nhân, TX. Mỹ Hào, Hưng Yên, Việt Nam",20.925,106.06,https://www.tiktok.com/@tng.bn.v.ngon.di/video/7558708676303932690,https://www.tiktok.com/embed/7558708676303932690
Chợ Đầu Mối Đông Tảo (Gà Đông Tảo),Hung Yen Province,"Xã Đông Tảo, H. Khoái Châu, Hưng Yên, Việt Nam",20.82,105.98,https://www.tiktok.com/@hongtien_khoaichau89/video/7548751239434046728,https://www.tiktok.com/embed/7548751239434046728
TokyoLife Hưng Yên,Hung Yen Province,"398 Nguyễn Văn Linh, P. An Tảo, TP. Hưng Yên, Việt Nam",20.661,106.053,https://www.tiktok.com/@tokyolife.channel/video/7556908109902433554,https://www.tiktok.com/embed/7556908109902433554
GO! Nam Định (Big C cũ),Nam Dinh Province,"Xã Lộc Hòa, TP. Nam Định, Nam Định, Việt Nam",20.4425,106.152,https://www.tiktok.com/@zzzz16182022/video/7464164123857767696,https://www.tiktok.com/embed/7464164123857767696
Nam Định Tower (Micom Plaza),Nam Dinh Province,"91 Điện Biên, P. Cửa Bắc, TP. Nam Định, Nam Định, Việt Nam",20.4332,106.1785,https://www.tiktok.com/@khaica3396/video/7153675490056736027,https://www.tiktok.com/embed/7153675490056736027
Chợ Rồng Nam Định,Nam Dinh Province,"301 Trần Hưng Đạo, P. Bà Triệu, TP. Nam Định, Nam Định, Việt Nam",20.4235,106.173,https://www.tiktok.com/@emhanhnamdinh/video/7574406471098600724,https://www.tiktok.com/embed/7574406471098600724
Chợ Viềng (Chợ Cầu May),Nam Dinh Province,"Xã Kim Thái, H. Vụ Bản, Nam Định, Việt Nam",20.38,106.1,https://www.tiktok.com/@toque2711/video/7467634715147783442,https://www.tiktok.com/embed/7467634715147783442
Chợ Đêm Nam Định,Nam Dinh Province,"Khu vực Hồ Vị Xuyên, TP. Nam Định, Nam Định, Việt Nam",20.428,106.175,https://www.tiktok.com/@cogainamdinh/video/7428961024637930759,https://www.tiktok.com/embed/7428961024637930759
YODY Nam Định,Nam Dinh Province,"168 Quang Trung, P. Quang Trung, TP. Nam Định, Nam Định, Việt Nam",20.429,106.171,https://www.tiktok.com/@yodynamdinh1/video/7421939080545488146,https://www.tiktok.com/embed/7421939080545488146
IVY moda Nam Định,Nam Dinh Province,"155 Quang Trung, P. Quang Trung, TP. Nam Định, Nam Định, Việt Nam",20.4285,106.17,https://www.tiktok.com/@linhlev1608/video/7483884909786877191,https://www.tiktok.com/embed/7483884909786877191
Nem Nắm Giao Thủy (Đặc sản),Nam Dinh Province,"Giao Thủy, Nam Định (Bán phổ biến toàn TP), Việt Nam",20.25,106.4,https://www.tiktok.com/@nem.giao.thu.ng.t/video/7513457932629970184,https://www.tiktok.com/embed/7513457932629970184
Savani Nam Định,Nam Dinh Province,"Lô 10-11 Đông A, Khu Đô Thị Hòa Vượng, TP. Nam Định, Việt Nam",20.44,106.16,https://www.tiktok.com/@nashopnd123/video/7504261802889317640,https://www.tiktok.com/embed/7504261802889317640
CoopMart Nam Dinh,Nam Dinh Province,"91 Điện Biên (Tòa nhà Nam Định Tower), TP. Nam Định, Việt Nam",20.4332,106.1785,https://www.tiktok.com/@hanngoc3327/video/7580991454349151508,https://www.tiktok.com/embed/7580991454349151508

